[{"OBJECT_NAME":"STARLINK-36467","OBJECT_ID":"2026-003Q","EPOCH":"2026-03-09T12:06:19.370304","MEAN_MOTION":15.27584661,"ECCENTRICITY":0.00013875,"INCLINATION":43.0012,"RA_OF_ASC_NODE":228.278,"ARG_OF_PERICENTER":242.6137,"MEAN_ANOMALY":117.4574,"EPHEMERIS_TYPE":0,"CLASSIFICATION_TYPE":"U","NORAD_CAT_ID":67348,"ELEMENT_SET_NO":999,"REV_AT_EPOCH":879,"BSTAR":0.00098456726,"MEAN_MOTION_DOT":0.00026934,"MEAN_MOTION_DDOT":0},{"OBJECT_NAME":"COSMOS 2251 DEB","OBJECT_ID":"1993-036N","EPOCH":"2026-03-09T20:39:34.848000","MEAN_MOTION":15.17003756,"ECCENTRICITY":0.00564486,"INCLINATION":74.0035,"RA_OF_ASC_NODE":352.1163,"ARG_OF_PERICENTER":60.1769,"MEAN_ANOMALY":300.5022,"EPHEMERIS_TYPE":0,"CLASSIFICATION_TYPE":"U","NORAD_CAT_ID":33765,"ELEMENT_SET_NO":999,"REV_AT_EPOCH":90936,"BSTAR":0.0026022202,"MEAN_MOTION_DOT":0.00053945,"MEAN_MOTION_DDOT":0}]
